[{"OBJECT_NAME":"COSMOS 2408","OBJECT_ID":"2004-037A","EPOCH":"2026-03-09T23:28:13.901088","MEAN_MOTION":12.45676776,"ECCENTRICITY":0.00167633,"INCLINATION":82.4873,"RA_OF_ASC_NODE":28.0054,"ARG_OF_PERICENTER":122.8917,"MEAN_ANOMALY":237.378,"EPHEMERIS_TYPE":0,"CLASSIFICATION_TYPE":"U","NORAD_CAT_ID":28419,"ELEMENT_SET_NO":999,"REV_AT_EPOCH":97555,"BSTAR":1.8849562e-5,"MEAN_MOTION_DOT":1.3e-7,"MEAN_MOTION_DDOT":0},{"OBJECT_NAME":"BREEZE-M DEB","OBJECT_ID":"2012-044R","EPOCH":"2026-03-09T11:12:03.419136","MEAN_MOTION":11.73981686,"ECCENTRICITY":0.18811986,"INCLINATION":49.9786,"RA_OF_ASC_NODE":125.1894,"ARG_OF_PERICENTER":162.4895,"MEAN_ANOMALY":205.0987,"EPHEMERIS_TYPE":0,"CLASSIFICATION_TYPE":"U","NORAD_CAT_ID":38884,"ELEMENT_SET_NO":999,"REV_AT_EPOCH":53107,"BSTAR":0.00073376568,"MEAN_MOTION_DOT":0.00034118,"MEAN_MOTION_DDOT":4.482423e-6}]
